{
  "type": "FeatureCollection",
  "generator": "overpass-turbo",
  "copyright": "The data included in this document is from www.openstreetmap.org. The data is made available under ODbL.",
  "timestamp": "2026-05-25T00:21:29Z",
  "features": [
    {
      "type": "Feature",
      "properties": {
        "@id": "relation/4057054",
        "admin_level": "8",
        "boundary": "administrative",
        "name": "San Javier",
        "official_name": "Municipio San Javier",
        "population": "7913",
        "population:2012": "2690",
        "population:date": "2024",
        "type": "boundary",
        "wikidata": "Q256171",
        "wikipedia": "en:San Javier Municipality, Beni"
      },
      "geometry": {
        "type": "Polygon",
        "coordinates": [
          [
            [
              -64.8963013,
              -14.7501489
            ],
            [
              -63.9736021,
              -14.7264593
            ],
            [
              -63.9727983,
              -14.7257586
            ],
            [
              -63.9547867,
              -14.7078031
            ],
            [
              -63.7578662,
              -14.5000149
            ],
            [
              -63.6199233,
              -14.3543429
            ],
            [
              -63.5792362,
              -14.3111885
            ],
            [
              -63.5793827,
              -14.3061225
            ],
            [
              -63.5757013,
              -14.3060649
            ],
            [
              -63.5752263,
              -14.3050868
            ],
            [
              -63.5762951,
              -14.3036772
            ],
            [
              -63.5761764,
              -14.3028717
            ],
            [
              -63.5743951,
              -14.3010881
            ],
            [
              -63.5746326,
              -14.2984989
            ],
            [
              -63.5740058,
              -14.2975661
            ],
            [
              -63.5721684,
              -14.2972906
            ],
            [
              -63.7587382,
              -14.2644597
            ],
            [
              -64.3990133,
              -14.1517534
            ],
            [
              -65.1052665,
              -14.015161
            ],
            [
              -65.1091074,
              -14.0336266
            ],
            [
              -65.1088285,
              -14.0375923
            ],
            [
              -65.1073479,
              -14.0412249
            ],
            [
              -65.1042151,
              -14.0437437
            ],
            [
              -65.1003956,
              -14.0455131
            ],
            [
              -65.094409,
              -14.0439934
            ],
            [
              -65.0909972,
              -14.0390808
            ],
            [
              -65.0882077,
              -14.0333769
            ],
            [
              -65.084753,
              -14.0315658
            ],
            [
              -65.0799036,
              -14.0316386
            ],
            [
              -65.0747537,
              -14.0332104
            ],
            [
              -65.071299,
              -14.036666
            ],
            [
              -65.0683593,
              -14.0426404
            ],
            [
              -65.0628381,
              -14.0566754
            ],
            [
              -65.0623512,
              -14.0639554
            ],
            [
              -65.0637245,
              -14.0801069
            ],
            [
              -65.0678444,
              -14.0887649
            ],
            [
              -65.0860405,
              -14.1102421
            ],
            [
              -65.0860405,
              -14.1140712
            ],
            [
              -65.0831222,
              -14.1177337
            ],
            [
              -65.0795173,
              -14.1167348
            ],
            [
              -65.0701062,
              -14.1168585
            ],
            [
              -65.0644008,
              -14.1146518
            ],
            [
              -65.0583937,
              -14.1128849
            ],
            [
              -65.0520515,
              -14.1100756
            ],
            [
              -65.0460298,
              -14.105623
            ],
            [
              -65.0389214,
              -14.1040309
            ],
            [
              -65.0305696,
              -14.1050548
            ],
            [
              -65.0260672,
              -14.1074817
            ],
            [
              -65.0240656,
              -14.1115173
            ],
            [
              -65.023899,
              -14.1180666
            ],
            [
              -65.0256157,
              -14.1235603
            ],
            [
              -65.0302505,
              -14.1308849
            ],
            [
              -65.0372886,
              -14.1370441
            ],
            [
              -65.0549697,
              -14.1445348
            ],
            [
              -65.0561714,
              -14.1463659
            ],
            [
              -65.0566864,
              -14.1510266
            ],
            [
              -65.047245,
              -14.1556872
            ],
            [
              -65.0432968,
              -14.163843
            ],
            [
              -65.0419851,
              -14.1703393
            ],
            [
              -65.0480167,
              -14.1759036
            ],
            [
              -65.0471634,
              -14.1816808
            ],
            [
              -65.0427818,
              -14.1898066
            ],
            [
              -65.0293868,
              -14.2104957
            ],
            [
              -65.0255629,
              -14.2153679
            ],
            [
              -65.023754,
              -14.2197849
            ],
            [
              -65.0233001,
              -14.225188
            ],
            [
              -65.023899,
              -14.2292456
            ],
            [
              -65.0275039,
              -14.2392291
            ],
            [
              -65.0289884,
              -14.2434611
            ],
            [
              -65.0320585,
              -14.2475832
            ],
            [
              -65.036789,
              -14.2512749
            ],
            [
              -65.0398942,
              -14.2544498
            ],
            [
              -65.0406174,
              -14.2590009
            ],
            [
              -65.0374603,
              -14.263354
            ],
            [
              -65.0331688,
              -14.2661823
            ],
            [
              -65.0275039,
              -14.2661823
            ],
            [
              -65.0233841,
              -14.2631876
            ],
            [
              -65.0201225,
              -14.2562
            ],
            [
              -65.0221556,
              -14.2502298
            ],
            [
              -65.0224052,
              -14.2468948
            ],
            [
              -65.0209588,
              -14.2435599
            ],
            [
              -65.0149453,
              -14.2380493
            ],
            [
              -65.0105953,
              -14.2350693
            ],
            [
              -65.0056171,
              -14.231388
            ],
            [
              -65.003407,
              -14.2300412
            ],
            [
              -65.0014543,
              -14.230192
            ],
            [
              -64.9983858,
              -14.2310708
            ],
            [
              -64.9974631,
              -14.2332391
            ],
            [
              -64.9966585,
              -14.2351213
            ],
            [
              -64.9970555,
              -14.2374612
            ],
            [
              -64.9978065,
              -14.240061
            ],
            [
              -65.0005745,
              -14.2426193
            ],
            [
              -65.0060034,
              -14.2454894
            ],
            [
              -65.0105953,
              -14.2529348
            ],
            [
              -65.0119042,
              -14.2593611
            ],
            [
              -65.0135994,
              -14.2705078
            ],
            [
              -65.0129969,
              -14.2778394
            ],
            [
              -65.0153126,
              -14.2857116
            ],
            [
              -65.0140929,
              -14.288516
            ],
            [
              -65.0093078,
              -14.2913024
            ],
            [
              -65.0055313,
              -14.2923005
            ],
            [
              -64.9847602,
              -14.2914687
            ],
            [
              -64.9713277,
              -14.2954611
            ],
            [
              -64.9690103,
              -14.2972493
            ],
            [
              -64.9680018,
              -14.2989335
            ],
            [
              -64.9676692,
              -14.3012207
            ],
            [
              -64.9681949,
              -14.3032584
            ],
            [
              -64.9702362,
              -14.3049923
            ],
            [
              -64.9732645,
              -14.3064143
            ],
            [
              -64.9812953,
              -14.3061395
            ],
            [
              -64.9880013,
              -14.3072117
            ],
            [
              -64.9901032,
              -14.3100991
            ],
            [
              -64.9908113,
              -14.3160454
            ],
            [
              -64.990704,
              -14.3190601
            ],
            [
              -64.9874379,
              -14.3259498
            ],
            [
              -64.9816703,
              -14.3328858
            ],
            [
              -64.9681091,
              -14.3478539
            ],
            [
              -64.9653625,
              -14.3538409
            ],
            [
              -64.9651908,
              -14.3588299
            ],
            [
              -64.9698257,
              -14.3614907
            ],
            [
              -64.9770355,
              -14.3603266
            ],
            [
              -65.0070762,
              -14.3458582
            ],
            [
              -65.0115394,
              -14.3461908
            ],
            [
              -65.0154876,
              -14.3486854
            ],
            [
              -65.0172042,
              -14.3535083
            ],
            [
              -65.0149726,
              -14.3588299
            ],
            [
              -65.0096511,
              -14.3618233
            ],
            [
              -65.0005531,
              -14.3624885
            ],
            [
              -64.9945449,
              -14.3654818
            ],
            [
              -64.9895668,
              -14.3734637
            ],
            [
              -64.9866485,
              -14.3792837
            ],
            [
              -64.981842,
              -14.3824431
            ],
            [
              -64.9766922,
              -14.3824431
            ],
            [
              -64.9657058,
              -14.377122
            ],
            [
              -64.9612426,
              -14.3746277
            ],
            [
              -64.9591399,
              -14.3744838
            ],
            [
              -64.9571228,
              -14.3752929
            ],
            [
              -64.9551301,
              -14.3768219
            ],
            [
              -64.9539501,
              -14.3791382
            ],
            [
              -64.9550628,
              -14.3831082
            ],
            [
              -64.9614143,
              -14.3947476
            ],
            [
              -64.9633026,
              -14.4018972
            ],
            [
              -64.9624443,
              -14.4060538
            ],
            [
              -64.960556,
              -14.4092128
            ],
            [
              -64.9461364,
              -14.4137018
            ],
            [
              -64.9437565,
              -14.4142242
            ],
            [
              -64.9419326,
              -14.416031
            ],
            [
              -64.9403246,
              -14.4184625
            ],
            [
              -64.9392941,
              -14.421101
            ],
            [
              -64.9395944,
              -14.4236348
            ],
            [
              -64.9406433,
              -14.4255058
            ],
            [
              -64.947853,
              -14.4341506
            ],
            [
              -64.9583661,
              -14.4405744
            ],
            [
              -64.9627645,
              -14.44118
            ],
            [
              -64.9778938,
              -14.4452886
            ],
            [
              -64.9817807,
              -14.4454841
            ],
            [
              -64.9859619,
              -14.4431276
            ],
            [
              -64.9955749,
              -14.432322
            ],
            [
              -65.0003814,
              -14.4311582
            ],
            [
              -65.0053596,
              -14.4326544
            ],
            [
              -65.0100203,
              -14.4356597
            ],
            [
              -65.013394,
              -14.4412574
            ],
            [
              -65.0136881,
              -14.4432717
            ],
            [
              -65.0131266,
              -14.4455552
            ],
            [
              -65.0099945,
              -14.4474497
            ],
            [
              -65.0031049,
              -14.4479728
            ],
            [
              -64.9970282,
              -14.4479957
            ],
            [
              -64.9917984,
              -14.4497769
            ],
            [
              -64.9819873,
              -14.4538923
            ],
            [
              -64.9761891,
              -14.4576325
            ],
            [
              -64.9718006,
              -14.4579826
            ],
            [
              -64.9653625,
              -14.4574234
            ],
            [
              -64.9516296,
              -14.4529353
            ],
            [
              -64.9473625,
              -14.4511124
            ],
            [
              -64.9433093,
              -14.4515885
            ],
            [
              -64.937725,
              -14.4544313
            ],
            [
              -64.9306869,
              -14.4637399
            ],
            [
              -64.9284122,
              -14.4668072
            ],
            [
              -64.9267387,
              -14.4733805
            ],
            [
              -64.9269104,
              -14.4811924
            ],
            [
              -64.9301719,
              -14.4886716
            ],
            [
              -64.936973,
              -14.4945364
            ],
            [
              -64.9416466,
              -14.5003348
            ],
            [
              -64.9449348,
              -14.5057897
            ],
            [
              -64.946957,
              -14.5074864
            ],
            [
              -64.9500846,
              -14.5101106
            ],
            [
              -64.960041,
              -14.5119387
            ],
            [
              -64.9704891,
              -14.5077579
            ],
            [
              -64.9745876,
              -14.5063989
            ],
            [
              -64.9778621,
              -14.507516
            ],
            [
              -64.9804752,
              -14.509495
            ],
            [
              -64.9806404,
              -14.5134343
            ],
            [
              -64.9790954,
              -14.5175889
            ],
            [
              -64.9571228,
              -14.5340401
            ],
            [
              -64.9507713,
              -14.5365326
            ],
            [
              -64.9483778,
              -14.5380933
            ],
            [
              -64.9473381,
              -14.5433453
            ],
            [
              -64.9487114,
              -14.5473332
            ],
            [
              -64.9519729,
              -14.5511548
            ],
            [
              -64.9645042,
              -14.5556409
            ],
            [
              -64.9784088,
              -14.5607915
            ],
            [
              -64.9881935,
              -14.5704279
            ],
            [
              -64.9944227,
              -14.5775933
            ],
            [
              -65.0001528,
              -14.5862781
            ],
            [
              -65.0084495,
              -14.5958459
            ],
            [
              -65.006987,
              -14.6014756
            ],
            [
              -65.0065612,
              -14.6038196
            ],
            [
              -65.003128,
              -14.6111286
            ],
            [
              -65.003128,
              -14.6169424
            ],
            [
              -65.0105095,
              -14.6323896
            ],
            [
              -65.0184059,
              -14.6463411
            ],
            [
              -65.0237274,
              -14.6519878
            ],
            [
              -65.0372134,
              -14.6565862
            ],
            [
              -65.0398635,
              -14.6586309
            ],
            [
              -65.0403785,
              -14.6619523
            ],
            [
              -65.0384903,
              -14.6649416
            ],
            [
              -65.0276756,
              -14.6745734
            ],
            [
              -65.0213925,
              -14.6803615
            ],
            [
              -65.0205845,
              -14.6811059
            ],
            [
              -65.0184387,
              -14.6849742
            ],
            [
              -65.0172112,
              -14.6903487
            ],
            [
              -65.0176137,
              -14.694933
            ],
            [
              -65.0204658,
              -14.6979869
            ],
            [
              -65.0283622,
              -14.7041304
            ],
            [
              -65.0420248,
              -14.7078007
            ],
            [
              -65.0474166,
              -14.7121001
            ],
            [
              -65.0542466,
              -14.717082
            ],
            [
              -65.0551414,
              -14.7204017
            ],
            [
              -65.0542831,
              -14.722892
            ],
            [
              -65.0511932,
              -14.722892
            ],
            [
              -65.047245,
              -14.7197375
            ],
            [
              -65.0443775,
              -14.7158583
            ],
            [
              -65.0406663,
              -14.7140239
            ],
            [
              -65.0376342,
              -14.7171613
            ],
            [
              -65.0363827,
              -14.7205944
            ],
            [
              -65.0374603,
              -14.7265446
            ],
            [
              -65.0394233,
              -14.7334119
            ],
            [
              -65.0426415,
              -14.7402213
            ],
            [
              -65.0434854,
              -14.7441271
            ],
            [
              -65.043501,
              -14.7500589
            ],
            [
              -64.9278737,
              -14.7501295
            ],
            [
              -64.9262975,
              -14.7501305
            ],
            [
              -64.9064223,
              -14.7501427
            ],
            [
              -64.9061489,
              -14.7501429
            ],
            [
              -64.8991478,
              -14.7501472
            ],
            [
              -64.8963111,
              -14.7501489
            ],
            [
              -64.8963013,
              -14.7501489
            ]
          ]
        ]
      },
      "id": "relation/4057054"
    },
    {
      "type": "Feature",
      "properties": {
        "@id": "relation/4057055",
        "admin_level": "8",
        "boundary": "administrative",
        "name": "Santísima Trinidad",
        "nat_name": "Trinidad",
        "official_name": "Municipio de la Santísima Trinidad",
        "population": "128589",
        "population:2012": "79963",
        "population:date": "2024",
        "short_name": "Trinidad",
        "source:population": "INE 2024",
        "type": "boundary",
        "wikidata": "Q842343",
        "wikipedia": "en:Trinidad Municipality, Beni"
      },
      "geometry": {
        "type": "Polygon",
        "coordinates": [
          [
            [
              -64.2835999,
              -14.8290448
            ],
            [
              -64.2820313,
              -14.8285258
            ],
            [
              -64.0967932,
              -14.7672319
            ],
            [
              -63.976209,
              -14.7273222
            ],
            [
              -63.9736021,
              -14.7264593
            ],
            [
              -64.8963013,
              -14.7501489
            ],
            [
              -64.8963111,
              -14.7501489
            ],
            [
              -64.8991478,
              -14.7501472
            ],
            [
              -64.9061489,
              -14.7501429
            ],
            [
              -64.9064223,
              -14.7501427
            ],
            [
              -64.9262975,
              -14.7501305
            ],
            [
              -64.9278737,
              -14.7501295
            ],
            [
              -65.043501,
              -14.7500589
            ],
            [
              -65.0445044,
              -14.7623097
            ],
            [
              -65.0430309,
              -14.7680194
            ],
            [
              -65.0464792,
              -14.771946
            ],
            [
              -65.0500172,
              -14.7753957
            ],
            [
              -65.0555593,
              -14.7797921
            ],
            [
              -65.0598035,
              -14.7823754
            ],
            [
              -65.0615426,
              -14.7844481
            ],
            [
              -65.0623916,
              -14.7877585
            ],
            [
              -65.0620079,
              -14.7906197
            ],
            [
              -65.0594329,
              -14.794935
            ],
            [
              -65.0505066,
              -14.7995821
            ],
            [
              -65.0492732,
              -14.8002337
            ],
            [
              -65.0471787,
              -14.8015746
            ],
            [
              -65.0453839,
              -14.8030793
            ],
            [
              -65.0406868,
              -14.8045234
            ],
            [
              -65.0382884,
              -14.8049046
            ],
            [
              -65.0344558,
              -14.8073741
            ],
            [
              -65.0331741,
              -14.808966
            ],
            [
              -65.0331926,
              -14.8109837
            ],
            [
              -65.035766,
              -14.814013
            ],
            [
              -65.0374567,
              -14.8158896
            ],
            [
              -65.0469734,
              -14.8179147
            ],
            [
              -65.0546888,
              -14.8210621
            ],
            [
              -65.0558938,
              -14.8230423
            ],
            [
              -65.0564697,
              -14.8255763
            ],
            [
              -65.0548897,
              -14.8285991
            ],
            [
              -65.050087,
              -14.8369048
            ],
            [
              -65.0465476,
              -14.8465513
            ],
            [
              -65.0466021,
              -14.8533283
            ],
            [
              -65.0496127,
              -14.8594951
            ],
            [
              -65.0501315,
              -14.8610484
            ],
            [
              -65.0500048,
              -14.8625527
            ],
            [
              -65.0490546,
              -14.8651576
            ],
            [
              -65.0464947,
              -14.8681639
            ],
            [
              -65.0423229,
              -14.8712963
            ],
            [
              -65.0376818,
              -14.8743455
            ],
            [
              -65.0348753,
              -14.8776495
            ],
            [
              -65.0328329,
              -14.8816168
            ],
            [
              -65.0321784,
              -14.8836752
            ],
            [
              -65.0317642,
              -14.8856951
            ],
            [
              -65.0321896,
              -14.8880781
            ],
            [
              -65.0349078,
              -14.8936879
            ],
            [
              -65.0396177,
              -14.8978266
            ],
            [
              -65.0400312,
              -14.898337
            ],
            [
              -65.0402114,
              -14.8998064
            ],
            [
              -65.0399213,
              -14.9010019
            ],
            [
              -65.0388941,
              -14.902317
            ],
            [
              -65.0375716,
              -14.903463
            ],
            [
              -65.0344359,
              -14.905175
            ],
            [
              -65.0316228,
              -14.9061727
            ],
            [
              -65.0313268,
              -14.9060815
            ],
            [
              -65.0276617,
              -14.9049518
            ],
            [
              -65.0236648,
              -14.9059351
            ],
            [
              -65.0204239,
              -14.9079011
            ],
            [
              -65.0151403,
              -14.9115633
            ],
            [
              -65.011279,
              -14.9131677
            ],
            [
              -65.0030551,
              -14.915648
            ],
            [
              -64.9956021,
              -14.9122453
            ],
            [
              -64.9917727,
              -14.9118728
            ],
            [
              -64.9881215,
              -14.9127988
            ],
            [
              -64.986486,
              -14.9142439
            ],
            [
              -64.9857878,
              -14.9160624
            ],
            [
              -64.9859989,
              -14.9201615
            ],
            [
              -64.9885829,
              -14.9245338
            ],
            [
              -64.991295,
              -14.9285575
            ],
            [
              -64.9939483,
              -14.9340651
            ],
            [
              -64.9943482,
              -14.9379118
            ],
            [
              -64.9937809,
              -14.942501
            ],
            [
              -64.9932912,
              -14.9436672
            ],
            [
              -64.9926003,
              -14.9453127
            ],
            [
              -64.9895419,
              -14.950665
            ],
            [
              -64.9875385,
              -14.954964
            ],
            [
              -64.9873928,
              -14.9552766
            ],
            [
              -64.986913,
              -14.9559284
            ],
            [
              -64.9821935,
              -14.962338
            ],
            [
              -64.9808004,
              -14.9656692
            ],
            [
              -64.9810545,
              -14.9675572
            ],
            [
              -64.9816343,
              -14.9684909
            ],
            [
              -64.9836389,
              -14.9717193
            ],
            [
              -64.9869404,
              -14.9740377
            ],
            [
              -64.9912006,
              -14.9770293
            ],
            [
              -64.9972151,
              -14.9826518
            ],
            [
              -65.000494,
              -14.9849932
            ],
            [
              -65.0015075,
              -14.9868885
            ],
            [
              -65.0018515,
              -14.9896567
            ],
            [
              -65.0009329,
              -14.9916365
            ],
            [
              -64.993982,
              -14.99896
            ],
            [
              -64.9845834,
              -15.0050692
            ],
            [
              -64.9831213,
              -15.0065983
            ],
            [
              -64.9813276,
              -15.0090152
            ],
            [
              -64.9798851,
              -15.0116409
            ],
            [
              -64.9794672,
              -15.0128401
            ],
            [
              -64.9790063,
              -15.0210047
            ],
            [
              -64.9591049,
              -15.0216025
            ],
            [
              -64.9310398,
              -15.0161654
            ],
            [
              -64.7665433,
              -14.9568669
            ],
            [
              -64.7517497,
              -14.9515332
            ],
            [
              -64.7515004,
              -14.9514433
            ],
            [
              -64.7514065,
              -14.9514095
            ],
            [
              -64.751307,
              -14.9513736
            ],
            [
              -64.7512418,
              -14.9513501
            ],
            [
              -64.7508413,
              -14.9512057
            ],
            [
              -64.750697,
              -14.9511537
            ],
            [
              -64.6912988,
              -14.9297369
            ],
            [
              -64.6035746,
              -14.898103
            ],
            [
              -64.4435955,
              -14.8810205
            ],
            [
              -64.4393646,
              -14.8805726
            ],
            [
              -64.2835999,
              -14.8290448
            ]
          ]
        ]
      },
      "id": "relation/4057055"
    },
    {
      "type": "Feature",
      "properties": {
        "@id": "relation/4503297",
        "addr:country": "BO",
        "addr:province": "Cercado",
        "addr:region": "Kanata",
        "addr:state": "Cochabamba",
        "admin_level": "8",
        "boundary": "administrative",
        "name": "Cochabamba",
        "official_name": "Municipio Cochabamba",
        "population": "665505",
        "population:2001": "517024",
        "population:2012": "632013",
        "population:date": "2024-03-23",
        "ref:ine": "030101",
        "source": "amdeco jul 2018",
        "source:population": "INE 2024",
        "type": "boundary",
        "wikidata": "Q1952931",
        "wikipedia": "es:Cochabamba"
      },
      "geometry": {
        "type": "Polygon",
        "coordinates": [
          [
            [
              -66.2737167,
              -17.4725905
            ],
            [
              -66.2730264,
              -17.4739777
            ],
            [
              -66.271984,
              -17.4751653
            ],
            [
              -66.2675883,
              -17.4798032
            ],
            [
              -66.2566257,
              -17.4895667
            ],
            [
              -66.2530908,
              -17.4974939
            ],
            [
              -66.2422858,
              -17.5037251
            ],
            [
              -66.2401635,
              -17.5044594
            ],
            [
              -66.2241035,
              -17.5044166
            ],
            [
              -66.2113441,
              -17.5027249
            ],
            [
              -66.2001281,
              -17.5057079
            ],
            [
              -66.1623063,
              -17.5257851
            ],
            [
              -66.1485144,
              -17.5197326
            ],
            [
              -66.142179,
              -17.5141695
            ],
            [
              -66.139177,
              -17.5136937
            ],
            [
              -66.1334987,
              -17.514801
            ],
            [
              -66.1299557,
              -17.5126002
            ],
            [
              -66.12821,
              -17.5121772
            ],
            [
              -66.1285628,
              -17.5050202
            ],
            [
              -66.1213706,
              -17.5036271
            ],
            [
              -66.1167345,
              -17.4983199
            ],
            [
              -66.1050459,
              -17.4942186
            ],
            [
              -66.1026239,
              -17.4898243
            ],
            [
              -66.1003623,
              -17.4886142
            ],
            [
              -66.0993026,
              -17.4886721
            ],
            [
              -66.094144,
              -17.4889376
            ],
            [
              -66.090997,
              -17.4882042
            ],
            [
              -66.0884634,
              -17.4855533
            ],
            [
              -66.0859394,
              -17.4812624
            ],
            [
              -66.0845282,
              -17.4784161
            ],
            [
              -66.0762674,
              -17.4729425
            ],
            [
              -66.0701785,
              -17.4689453
            ],
            [
              -66.0702132,
              -17.4678955
            ],
            [
              -66.0721931,
              -17.4629359
            ],
            [
              -66.0729327,
              -17.4618281
            ],
            [
              -66.0737411,
              -17.4603659
            ],
            [
              -66.077339,
              -17.4589924
            ],
            [
              -66.0778376,
              -17.4585947
            ],
            [
              -66.0779938,
              -17.4573832
            ],
            [
              -66.0781766,
              -17.4562821
            ],
            [
              -66.0791009,
              -17.4551448
            ],
            [
              -66.0807899,
              -17.4546178
            ],
            [
              -66.0854429,
              -17.4488407
            ],
            [
              -66.0861607,
              -17.446656
            ],
            [
              -66.0866508,
              -17.4460508
            ],
            [
              -66.0871008,
              -17.442596
            ],
            [
              -66.0880541,
              -17.4413914
            ],
            [
              -66.0896691,
              -17.4401685
            ],
            [
              -66.0906445,
              -17.4396354
            ],
            [
              -66.0909946,
              -17.4391312
            ],
            [
              -66.0912276,
              -17.4377023
            ],
            [
              -66.09241,
              -17.4350814
            ],
            [
              -66.0925168,
              -17.4338895
            ],
            [
              -66.0933108,
              -17.4334603
            ],
            [
              -66.0941879,
              -17.4332824
            ],
            [
              -66.0950268,
              -17.4329356
            ],
            [
              -66.0959734,
              -17.4328839
            ],
            [
              -66.0969128,
              -17.4332925
            ],
            [
              -66.0971511,
              -17.4333562
            ],
            [
              -66.0972015,
              -17.4333697
            ],
            [
              -66.0980953,
              -17.4333965
            ],
            [
              -66.0989608,
              -17.4332625
            ],
            [
              -66.0997295,
              -17.4329156
            ],
            [
              -66.0998059,
              -17.4319727
            ],
            [
              -66.0999381,
              -17.4313845
            ],
            [
              -66.1009679,
              -17.4305338
            ],
            [
              -66.1018739,
              -17.4294388
            ],
            [
              -66.1018311,
              -17.4282848
            ],
            [
              -66.101954,
              -17.4273616
            ],
            [
              -66.1015256,
              -17.426406
            ],
            [
              -66.1037412,
              -17.4251427
            ],
            [
              -66.1045068,
              -17.4238602
            ],
            [
              -66.1048334,
              -17.4230475
            ],
            [
              -66.1049134,
              -17.4218686
            ],
            [
              -66.106403,
              -17.4192567
            ],
            [
              -66.1072936,
              -17.4182943
            ],
            [
              -66.1085066,
              -17.4176122
            ],
            [
              -66.1094066,
              -17.4167763
            ],
            [
              -66.1100462,
              -17.4159836
            ],
            [
              -66.1112146,
              -17.4150835
            ],
            [
              -66.112064,
              -17.4140487
            ],
            [
              -66.1131385,
              -17.4131412
            ],
            [
              -66.1137913,
              -17.4127289
            ],
            [
              -66.114668,
              -17.4127719
            ],
            [
              -66.1165237,
              -17.4125477
            ],
            [
              -66.1180727,
              -17.4108591
            ],
            [
              -66.1175652,
              -17.4088053
            ],
            [
              -66.1175818,
              -17.4077434
            ],
            [
              -66.1181441,
              -17.4071615
            ],
            [
              -66.118521,
              -17.4062716
            ],
            [
              -66.1185909,
              -17.4061059
            ],
            [
              -66.1188708,
              -17.4052467
            ],
            [
              -66.1193504,
              -17.4047007
            ],
            [
              -66.1195496,
              -17.4037595
            ],
            [
              -66.1201441,
              -17.4023525
            ],
            [
              -66.1206668,
              -17.4001391
            ],
            [
              -66.1214522,
              -17.3992602
            ],
            [
              -66.1218344,
              -17.3982134
            ],
            [
              -66.1224926,
              -17.3968834
            ],
            [
              -66.1233037,
              -17.3947879
            ],
            [
              -66.1242868,
              -17.3933482
            ],
            [
              -66.1249066,
              -17.3922253
            ],
            [
              -66.1260223,
              -17.3902923
            ],
            [
              -66.1266409,
              -17.3896099
            ],
            [
              -66.1276954,
              -17.3893176
            ],
            [
              -66.1287354,
              -17.3892727
            ],
            [
              -66.1296373,
              -17.3874483
            ],
            [
              -66.1303931,
              -17.3855555
            ],
            [
              -66.1314038,
              -17.3843634
            ],
            [
              -66.1318519,
              -17.38406
            ],
            [
              -66.1335307,
              -17.3840246
            ],
            [
              -66.1344061,
              -17.3839522
            ],
            [
              -66.1347486,
              -17.3838664
            ],
            [
              -66.1343148,
              -17.3830839
            ],
            [
              -66.1336765,
              -17.3820092
            ],
            [
              -66.1330917,
              -17.3812318
            ],
            [
              -66.1326868,
              -17.3802968
            ],
            [
              -66.1320309,
              -17.3795239
            ],
            [
              -66.132341,
              -17.3785244
            ],
            [
              -66.1325858,
              -17.3781478
            ],
            [
              -66.1328139,
              -17.3768667
            ],
            [
              -66.1330826,
              -17.3753954
            ],
            [
              -66.1328317,
              -17.3734926
            ],
            [
              -66.132671,
              -17.3722326
            ],
            [
              -66.1321896,
              -17.3715767
            ],
            [
              -66.1311113,
              -17.369791
            ],
            [
              -66.1310433,
              -17.3685537
            ],
            [
              -66.1309198,
              -17.3663068
            ],
            [
              -66.1309028,
              -17.3644018
            ],
            [
              -66.1308972,
              -17.363778
            ],
            [
              -66.1308795,
              -17.3617914
            ],
            [
              -66.1308769,
              -17.361507
            ],
            [
              -66.130875,
              -17.3612907
            ],
            [
              -66.1308424,
              -17.3609408
            ],
            [
              -66.1305065,
              -17.3573319
            ],
            [
              -66.1297182,
              -17.3527181
            ],
            [
              -66.1289994,
              -17.3515277
            ],
            [
              -66.1286501,
              -17.3502835
            ],
            [
              -66.1286767,
              -17.3485727
            ],
            [
              -66.1295083,
              -17.3464604
            ],
            [
              -66.128609,
              -17.3450313
            ],
            [
              -66.1278856,
              -17.3441359
            ],
            [
              -66.1277867,
              -17.3426003
            ],
            [
              -66.1271935,
              -17.3412346
            ],
            [
              -66.1265922,
              -17.3403999
            ],
            [
              -66.1258074,
              -17.3395035
            ],
            [
              -66.1245377,
              -17.3381871
            ],
            [
              -66.1227327,
              -17.3370217
            ],
            [
              -66.1219264,
              -17.3352366
            ],
            [
              -66.1216257,
              -17.3350657
            ],
            [
              -66.1209798,
              -17.33499
            ],
            [
              -66.1205292,
              -17.3348876
            ],
            [
              -66.1200571,
              -17.3351539
            ],
            [
              -66.11954,
              -17.3354242
            ],
            [
              -66.1191344,
              -17.3353177
            ],
            [
              -66.1188126,
              -17.334949
            ],
            [
              -66.1185551,
              -17.3332899
            ],
            [
              -66.1183081,
              -17.3327476
            ],
            [
              -66.117729,
              -17.3318356
            ],
            [
              -66.1178155,
              -17.3312753
            ],
            [
              -66.1174178,
              -17.330627
            ],
            [
              -66.1173213,
              -17.330033
            ],
            [
              -66.1172891,
              -17.3294902
            ],
            [
              -66.117096,
              -17.3288655
            ],
            [
              -66.1169243,
              -17.3279846
            ],
            [
              -66.1163879,
              -17.326858
            ],
            [
              -66.1164165,
              -17.3263778
            ],
            [
              -66.1177397,
              -17.3254754
            ],
            [
              -66.1180508,
              -17.3249837
            ],
            [
              -66.1180401,
              -17.3242053
            ],
            [
              -66.117729,
              -17.3235806
            ],
            [
              -66.1177826,
              -17.3229251
            ],
            [
              -66.1180186,
              -17.3222081
            ],
            [
              -66.1183405,
              -17.3217575
            ],
            [
              -66.1181987,
              -17.321204
            ],
            [
              -66.1182805,
              -17.3205805
            ],
            [
              -66.118598,
              -17.3203235
            ],
            [
              -66.1184907,
              -17.3198934
            ],
            [
              -66.1184698,
              -17.3194525
            ],
            [
              -66.1190379,
              -17.3185926
            ],
            [
              -66.1192095,
              -17.3182034
            ],
            [
              -66.1194569,
              -17.3171063
            ],
            [
              -66.1197353,
              -17.3166567
            ],
            [
              -66.1198037,
              -17.3156241
            ],
            [
              -66.1200854,
              -17.3150143
            ],
            [
              -66.1206558,
              -17.3146538
            ],
            [
              -66.1210013,
              -17.3140756
            ],
            [
              -66.1218059,
              -17.3133791
            ],
            [
              -66.1219561,
              -17.3127133
            ],
            [
              -66.122116,
              -17.3123992
            ],
            [
              -66.1225891,
              -17.3119246
            ],
            [
              -66.1227372,
              -17.3112199
            ],
            [
              -66.1232329,
              -17.3108799
            ],
            [
              -66.1236675,
              -17.3102546
            ],
            [
              -66.1238551,
              -17.3093025
            ],
            [
              -66.1240912,
              -17.3086367
            ],
            [
              -66.124177,
              -17.3080733
            ],
            [
              -66.1241555,
              -17.3073972
            ],
            [
              -66.124456,
              -17.3061886
            ],
            [
              -66.1243379,
              -17.304816
            ],
            [
              -66.1247134,
              -17.3043243
            ],
            [
              -66.125046,
              -17.3036687
            ],
            [
              -66.1248315,
              -17.302163
            ],
            [
              -66.1243272,
              -17.3006572
            ],
            [
              -66.124413,
              -17.2999811
            ],
            [
              -66.1244238,
              -17.2995099
            ],
            [
              -66.1242414,
              -17.2989465
            ],
            [
              -66.1241663,
              -17.2983319
            ],
            [
              -66.1242833,
              -17.2937813
            ],
            [
              -66.125722,
              -17.2905774
            ],
            [
              -66.1257649,
              -17.2896759
            ],
            [
              -66.1259115,
              -17.2892298
            ],
            [
              -66.1262282,
              -17.2888148
            ],
            [
              -66.1264086,
              -17.2883647
            ],
            [
              -66.1264081,
              -17.2879579
            ],
            [
              -66.1265373,
              -17.2875451
            ],
            [
              -66.1268992,
              -17.2873963
            ],
            [
              -66.1272859,
              -17.2875879
            ],
            [
              -66.1275027,
              -17.2870143
            ],
            [
              -66.1278729,
              -17.2865666
            ],
            [
              -66.1285653,
              -17.2860388
            ],
            [
              -66.1294372,
              -17.2848679
            ],
            [
              -66.1295567,
              -17.2845923
            ],
            [
              -66.1297126,
              -17.2834551
            ],
            [
              -66.1298562,
              -17.2828694
            ],
            [
              -66.130286,
              -17.2824792
            ],
            [
              -66.131171,
              -17.2824336
            ],
            [
              -66.1373475,
              -17.2837004
            ],
            [
              -66.1562449,
              -17.2781245
            ],
            [
              -66.1595844,
              -17.2785988
            ],
            [
              -66.1598343,
              -17.2787376
            ],
            [
              -66.1600719,
              -17.2789337
            ],
            [
              -66.1602616,
              -17.2791526
            ],
            [
              -66.1604873,
              -17.2793487
            ],
            [
              -66.160701,
              -17.2795562
            ],
            [
              -66.1608907,
              -17.279775
            ],
            [
              -66.1610444,
              -17.2800281
            ],
            [
              -66.1611979,
              -17.2803041
            ],
            [
              -66.1613398,
              -17.2805456
            ],
            [
              -66.1615174,
              -17.2807873
            ],
            [
              -66.1617552,
              -17.2809491
            ],
            [
              -66.1620415,
              -17.2809849
            ],
            [
              -66.1623035,
              -17.2811009
            ],
            [
              -66.1624573,
              -17.281331
            ],
            [
              -66.1625991,
              -17.281584
            ],
            [
              -66.1626929,
              -17.2818712
            ],
            [
              -66.1627988,
              -17.2821355
            ],
            [
              -66.1628927,
              -17.2823998
            ],
            [
              -66.1629986,
              -17.2826641
            ],
            [
              -66.1631763,
              -17.2828943
            ],
            [
              -66.163378,
              -17.2831132
            ],
            [
              -66.1635917,
              -17.2833092
            ],
            [
              -66.1637935,
              -17.2835052
            ],
            [
              -66.1638873,
              -17.2838039
            ],
            [
              -66.1639453,
              -17.2840794
            ],
            [
              -66.1640512,
              -17.2843552
            ],
            [
              -66.1642289,
              -17.2845739
            ],
            [
              -66.1644905,
              -17.2847587
            ],
            [
              -66.1646922,
              -17.2849661
            ],
            [
              -66.1647982,
              -17.285219
            ],
            [
              -66.16494,
              -17.2854605
            ],
            [
              -66.1651177,
              -17.2856908
            ],
            [
              -66.1653074,
              -17.2859211
            ],
            [
              -66.1653655,
              -17.2861966
            ],
            [
              -66.1653877,
              -17.2864834
            ],
            [
              -66.1654337,
              -17.2867704
            ],
            [
              -66.1655157,
              -17.2870461
            ],
            [
              -66.1656934,
              -17.2872763
            ],
            [
              -66.1657873,
              -17.287552
            ],
            [
              -66.1657975,
              -17.2878388
            ],
            [
              -66.1657959,
              -17.288114
            ],
            [
              -66.1657346,
              -17.288389
            ],
            [
              -66.1657329,
              -17.2886757
            ],
            [
              -66.165791,
              -17.2889512
            ],
            [
              -66.1659209,
              -17.2891927
            ],
            [
              -66.1660388,
              -17.2894456
            ],
            [
              -66.1662165,
              -17.2896759
            ],
            [
              -66.1664061,
              -17.2899176
            ],
            [
              -66.1666077,
              -17.2901365
            ],
            [
              -66.1667855,
              -17.2903553
            ],
            [
              -66.1669992,
              -17.2905743
            ],
            [
              -66.167201,
              -17.2907702
            ],
            [
              -66.1674147,
              -17.2909663
            ],
            [
              -66.1675924,
              -17.2911965
            ],
            [
              -66.1677103,
              -17.2914494
            ],
            [
              -66.1677924,
              -17.2917136
            ],
            [
              -66.1678744,
              -17.2919778
            ],
            [
              -66.1679683,
              -17.2922535
            ],
            [
              -66.1680622,
              -17.2925292
            ],
            [
              -66.168168,
              -17.2927935
            ],
            [
              -66.1682979,
              -17.2930464
            ],
            [
              -66.1684158,
              -17.2932994
            ],
            [
              -66.1685576,
              -17.2935409
            ],
            [
              -66.1687234,
              -17.2937711
            ],
            [
              -66.1688892,
              -17.2940127
            ],
            [
              -66.169031,
              -17.2942657
            ],
            [
              -66.1691369,
              -17.2945186
            ],
            [
              -66.1692668,
              -17.2947601
            ],
            [
              -66.1693846,
              -17.2950359
            ],
            [
              -66.1695264,
              -17.2952889
            ],
            [
              -66.1696561,
              -17.2955533
            ],
            [
              -66.1697859,
              -17.2958292
            ],
            [
              -66.1699038,
              -17.2960821
            ],
            [
              -66.1700217,
              -17.296335
            ],
            [
              -66.1701634,
              -17.296588
            ],
            [
              -66.1703053,
              -17.2968295
            ],
            [
              -66.1705189,
              -17.2970485
            ],
            [
              -66.1707446,
              -17.2972446
            ],
            [
              -66.1710183,
              -17.297395
            ],
            [
              -66.1712804,
              -17.2974995
            ],
            [
              -66.1715544,
              -17.2976041
            ],
            [
              -66.1718044,
              -17.2977314
            ],
            [
              -66.1720659,
              -17.2979277
            ],
            [
              -66.1722317,
              -17.2981579
            ],
            [
              -66.1723376,
              -17.2984222
            ],
            [
              -66.1724674,
              -17.2986866
            ],
            [
              -66.1725973,
              -17.2989281
            ],
            [
              -66.1727032,
              -17.2991924
            ],
            [
              -66.1727613,
              -17.2994679
            ],
            [
              -66.1728433,
              -17.2997321
            ],
            [
              -66.1729491,
              -17.3000079
            ],
            [
              -66.1730909,
              -17.3002609
            ],
            [
              -66.1732926,
              -17.3004912
            ],
            [
              -66.1734704,
              -17.30071
            ],
            [
              -66.173421,
              -17.300985
            ],
            [
              -66.1732644,
              -17.3012137
            ],
            [
              -66.1730602,
              -17.3014306
            ],
            [
              -66.1729034,
              -17.301705
            ],
            [
              -66.1729137,
              -17.3019804
            ],
            [
              -66.1730555,
              -17.3022334
            ],
            [
              -66.1731614,
              -17.3024977
            ],
            [
              -66.1731239,
              -17.3027842
            ],
            [
              -66.1730624,
              -17.3030821
            ],
            [
              -66.1730489,
              -17.3033573
            ],
            [
              -66.173095,
              -17.3036442
            ],
            [
              -66.1732486,
              -17.3039088
            ],
            [
              -66.1733785,
              -17.3041503
            ],
            [
              -66.1734365,
              -17.3044373
            ],
            [
              -66.1734349,
              -17.3047125
            ],
            [
              -66.1734395,
              -17.3049437
            ],
            [
              -66.1735247,
              -17.3051773
            ],
            [
              -66.173551,
              -17.3052865
            ],
            [
              -66.173633,
              -17.3055507
            ],
            [
              -66.173727,
              -17.3058149
            ],
            [
              -66.1739047,
              -17.3060452
            ],
            [
              -66.1740825,
              -17.306264
            ],
            [
              -66.1741406,
              -17.3065395
            ],
            [
              -66.1740435,
              -17.3068028
            ],
            [
              -66.1739345,
              -17.3070661
            ],
            [
              -66.1738255,
              -17.3073293
            ],
            [
              -66.1737345,
              -17.3075996
            ],
            [
              -66.1737275,
              -17.3077647
            ],
            [
              -66.1737498,
              -17.30804
            ],
            [
              -66.1738318,
              -17.3083042
            ],
            [
              -66.1739377,
              -17.3085685
            ],
            [
              -66.1741514,
              -17.3087875
            ],
            [
              -66.1744254,
              -17.308892
            ],
            [
              -66.1746873,
              -17.3090309
            ],
            [
              -66.1748412,
              -17.3092611
            ],
            [
              -66.1749232,
              -17.3095252
            ],
            [
              -66.1749454,
              -17.3098006
            ],
            [
              -66.1749915,
              -17.3100876
            ],
            [
              -66.1750616,
              -17.3103517
            ],
            [
              -66.1751197,
              -17.3106272
            ],
            [
              -66.175118,
              -17.3109139
            ],
            [
              -66.175164,
              -17.3112124
            ],
            [
              -66.1752869,
              -17.3114596
            ],
            [
              -66.1753415,
              -17.3114885
            ],
            [
              -66.1756157,
              -17.3115701
            ],
            [
              -66.1758897,
              -17.3116746
            ],
            [
              -66.1761397,
              -17.311802
            ],
            [
              -66.1763895,
              -17.3119638
            ],
            [
              -66.1766214,
              -17.3121522
            ],
            [
              -66.1768168,
              -17.3124017
            ],
            [
              -66.1769585,
              -17.3126662
            ],
            [
              -66.1770645,
              -17.312919
            ],
            [
              -66.1771823,
              -17.3131834
            ],
            [
              -66.1773242,
              -17.3134249
            ],
            [
              -66.1775258,
              -17.3136667
            ],
            [
              -66.1777276,
              -17.3138627
            ],
            [
              -66.1779295,
              -17.3140586
            ],
            [
              -66.1781433,
              -17.3142547
            ],
            [
              -66.178345,
              -17.3144736
            ],
            [
              -66.1785347,
              -17.3147039
            ],
            [
              -66.1787244,
              -17.3149227
            ],
            [
              -66.1788901,
              -17.3151758
            ],
            [
              -66.1790679,
              -17.3154061
            ],
            [
              -66.1792336,
              -17.3156477
            ],
            [
              -66.1793844,
              -17.3158644
            ],
            [
              -66.1796097,
              -17.3162926
            ],
            [
              -66.1797891,
              -17.3166367
            ],
            [
              -66.1799189,
              -17.3169012
            ],
            [
              -66.1800367,
              -17.317177
            ],
            [
              -66.1801544,
              -17.3174643
            ],
            [
              -66.1802723,
              -17.3177172
            ],
            [
              -66.1804022,
              -17.3179701
            ],
            [
              -66.1805081,
              -17.3182459
            ],
            [
              -66.1806139,
              -17.3185216
            ],
            [
              -66.1807434,
              -17.3188434
            ],
            [
              -66.1808491,
              -17.3191536
            ],
            [
              -66.180943,
              -17.3194178
            ],
            [
              -66.1810728,
              -17.3196937
            ],
            [
              -66.1811907,
              -17.3199466
            ],
            [
              -66.1812967,
              -17.3201994
            ],
            [
              -66.1814505,
              -17.320441
            ],
            [
              -66.1816403,
              -17.3206599
            ],
            [
              -66.1817719,
              -17.3208854
            ],
            [
              -66.1819446,
              -17.3211253
            ],
            [
              -66.1820528,
              -17.3213561
            ],
            [
              -66.1823394,
              -17.3215922
            ],
            [
              -66.1824692,
              -17.3218567
            ],
            [
              -66.1825749,
              -17.3221554
            ],
            [
              -66.1827044,
              -17.3224657
            ],
            [
              -66.1828461,
              -17.3227531
            ],
            [
              -66.1829521,
              -17.3230059
            ],
            [
              -66.1830819,
              -17.3232703
            ],
            [
              -66.1832117,
              -17.3235347
            ],
            [
              -66.1833296,
              -17.3237876
            ],
            [
              -66.1834476,
              -17.3240405
            ],
            [
              -66.1835176,
              -17.3243161
            ],
            [
              -66.1835873,
              -17.324649
            ],
            [
              -66.1836932,
              -17.3249133
            ],
            [
              -66.1838471,
              -17.3251435
            ],
            [
              -66.1839889,
              -17.3254079
            ],
            [
              -66.1840949,
              -17.3256608
            ],
            [
              -66.1842605,
              -17.3259254
            ],
            [
              -66.1844384,
              -17.3261441
            ],
            [
              -66.1846758,
              -17.3263747
            ],
            [
              -66.1848777,
              -17.3265706
            ],
            [
              -66.1851033,
              -17.3268011
            ],
            [
              -66.1852691,
              -17.3270313
            ],
            [
              -66.1854467,
              -17.3272844
            ],
            [
              -66.1856006,
              -17.327526
            ],
            [
              -66.1857782,
              -17.3277907
            ],
            [
              -66.185932,
              -17.3280323
            ],
            [
              -66.1860857,
              -17.3282968
            ],
            [
              -66.1862275,
              -17.3285498
            ],
            [
              -66.1863575,
              -17.3287913
            ],
            [
              -66.1865592,
              -17.3290102
            ],
            [
              -66.1867851,
              -17.3291833
            ],
            [
              -66.1870484,
              -17.3293448
            ],
            [
              -66.1871509,
              -17.3339634
            ],
            [
              -66.1872155,
              -17.3368726
            ],
            [
              -66.1871817,
              -17.3383102
            ],
            [
              -66.1871038,
              -17.3415407
            ],
            [
              -66.1870364,
              -17.3430113
            ],
            [
              -66.1870805,
              -17.3432078
            ],
            [
              -66.1902644,
              -17.3524952
            ],
            [
              -66.1934663,
              -17.360631
            ],
            [
              -66.1982691,
              -17.374524
            ],
            [
              -66.2073888,
              -17.3708878
            ],
            [
              -66.2074814,
              -17.376235
            ],
            [
              -66.2075172,
              -17.3796355
            ],
            [
              -66.2075434,
              -17.3798233
            ],
            [
              -66.2078993,
              -17.3808908
            ],
            [
              -66.2082303,
              -17.3819729
            ],
            [
              -66.2081924,
              -17.3821846
            ],
            [
              -66.2079851,
              -17.3829744
            ],
            [
              -66.207959,
              -17.3844845
            ],
            [
              -66.2079658,
              -17.3863359
            ],
            [
              -66.2080174,
              -17.3895768
            ],
            [
              -66.2081548,
              -17.3919976
            ],
            [
              -66.2081782,
              -17.3925183
            ],
            [
              -66.2083287,
              -17.395402
            ],
            [
              -66.2083547,
              -17.3954678
            ],
            [
              -66.2084193,
              -17.3955034
            ],
            [
              -66.2099814,
              -17.3956033
            ],
            [
              -66.2101653,
              -17.395682
            ],
            [
              -66.2103799,
              -17.3958614
            ],
            [
              -66.2107809,
              -17.3962272
            ],
            [
              -66.2109896,
              -17.396358
            ],
            [
              -66.2128034,
              -17.396834
            ],
            [
              -66.2136107,
              -17.3971478
            ],
            [
              -66.2142462,
              -17.3971206
            ],
            [
              -66.2149476,
              -17.3977825
            ],
            [
              -66.215384,
              -17.3983894
            ],
            [
              -66.2162529,
              -17.3996364
            ],
            [
              -66.214471,
              -17.3996774
            ],
            [
              -66.2152576,
              -17.4044274
            ],
            [
              -66.2165842,
              -17.4159047
            ],
            [
              -66.2179052,
              -17.4250243
            ],
            [
              -66.2205882,
              -17.4255614
            ],
            [
              -66.221341,
              -17.425631
            ],
            [
              -66.2223693,
              -17.4254411
            ],
            [
              -66.2229662,
              -17.4251848
            ],
            [
              -66.2233234,
              -17.4248839
            ],
            [
              -66.2235588,
              -17.4242391
            ],
            [
              -66.2238189,
              -17.423732
            ],
            [
              -66.2241743,
              -17.4231324
            ],
            [
              -66.2242673,
              -17.4226952
            ],
            [
              -66.2242644,
              -17.4222357
            ],
            [
              -66.2243792,
              -17.4214537
            ],
            [
              -66.2243501,
              -17.4206266
            ],
            [
              -66.2250606,
              -17.4185149
            ],
            [
              -66.2259913,
              -17.4171832
            ],
            [
              -66.2272568,
              -17.4165639
            ],
            [
              -66.229443,
              -17.4165135
            ],
            [
              -66.2312331,
              -17.4167787
            ],
            [
              -66.232276,
              -17.4186439
            ],
            [
              -66.237557,
              -17.4234645
            ],
            [
              -66.2376168,
              -17.4234984
            ],
            [
              -66.2389283,
              -17.4236517
            ],
            [
              -66.2402433,
              -17.4235799
            ],
            [
              -66.2429136,
              -17.425478
            ],
            [
              -66.245593,
              -17.4273605
            ],
            [
              -66.2524891,
              -17.443145
            ],
            [
              -66.2614632,
              -17.4493725
            ],
            [
              -66.2706813,
              -17.4555069
            ],
            [
              -66.2783356,
              -17.4633835
            ],
            [
              -66.2737167,
              -17.4725905
            ]
          ]
        ]
      },
      "id": "relation/4503297"
    },
    {
      "type": "Feature",
      "properties": {
        "@id": "way/250608794",
        "admin_level": "8",
        "boat": "no",
        "boundary": "administrative",
        "name": "Río San Pablo",
        "source": "landsat",
        "waterway": "river"
      },
      "geometry": {
        "type": "LineString",
        "coordinates": [
          [
            -63.9748741,
            -14.7290667
          ],
          [
            -63.974926,
            -14.7282903
          ],
          [
            -63.9747553,
            -14.7275476
          ],
          [
            -63.9745816,
            -14.7271527
          ],
          [
            -63.9743435,
            -14.726482
          ],
          [
            -63.9741493,
            -14.7259519
          ]
        ]
      },
      "id": "way/250608794"
    },
    {
      "type": "Feature",
      "properties": {
        "@id": "node/313811401",
        "@relations": [
          {
            "role": "admin_centre",
            "rel": 4503297,
            "reltags": {
              "addr:country": "BO",
              "addr:province": "Cercado",
              "addr:region": "Kanata",
              "addr:state": "Cochabamba",
              "admin_level": "8",
              "boundary": "administrative",
              "name": "Cochabamba",
              "official_name": "Municipio Cochabamba",
              "population": "665505",
              "population:2001": "517024",
              "population:2012": "632013",
              "population:date": "2024-03-23",
              "ref:ine": "030101",
              "source": "amdeco jul 2018",
              "source:population": "INE 2024",
              "type": "boundary",
              "wikidata": "Q1952931",
              "wikipedia": "es:Cochabamba"
            }
          }
        ]
      },
      "geometry": {
        "type": "Point",
        "coordinates": [
          -66.1568983,
          -17.3936114
        ]
      },
      "id": "node/313811401"
    },
    {
      "type": "Feature",
      "properties": {
        "@id": "node/415165872",
        "@relations": [
          {
            "role": "admin_centre",
            "rel": 4057055,
            "reltags": {
              "admin_level": "8",
              "boundary": "administrative",
              "name": "Santísima Trinidad",
              "nat_name": "Trinidad",
              "official_name": "Municipio de la Santísima Trinidad",
              "population": "128589",
              "population:2012": "79963",
              "population:date": "2024",
              "short_name": "Trinidad",
              "source:population": "INE 2024",
              "type": "boundary",
              "wikidata": "Q842343",
              "wikipedia": "en:Trinidad Municipality, Beni"
            }
          }
        ]
      },
      "geometry": {
        "type": "Point",
        "coordinates": [
          -64.9044936,
          -14.8349438
        ]
      },
      "id": "node/415165872"
    }
  ]
}